1 34487U 97051GC  26114.54181932  .00000422  00000+0  11824-3 0  9991
2 34487  86.3406 315.2194 0032646  53.8473 336.0933 14.43432743901643
